start=new Date('2022-03-11T00:00:00.000Z').valueOf();
sats=[{"EPHEMERIS_TYPE":"0","APOAPSIS":"548.535","NORAD_CAT_ID":"48395","REF_FRAME":"TEME","PERIAPSIS":"545.962","FILE":"3354091","MEAN_MOTION":"15.06388545","PERIOD":"95.593","RCS_SIZE":"LARGE","EPOCH":"2022-03-10T15:36:40.426560","MEAN_MOTION_DDOT":"0.0000000000000","TLE_LINE1":"1 48395U 21038AU  22069.65046790  .00000270  00000-0  37032-4 0  9997","MEAN_ANOMALY":"308.3157","COUNTRY_CODE":"US","CENTER_NAME":"EARTH","OBJECT_TYPE":"PAYLOAD","INCLINATION":"53.0562","MEAN_MOTION_DOT":"0.00000270","TLE_LINE2":"2 48395  53.0562  55.9853 0001858  51.7999 308.3157 15.06388545 48463","DECAY_DATE":null,"SEMIMAJOR_AXIS":"6925.384","TIME_SYSTEM":"UTC","ELEMENT_SET_NO":"999","REV_AT_EPOCH":"4846","BSTAR":"0.00003703200000","CLASSIFICATION_TYPE":"U","OBJECT_ID":"2021-038AU","MEAN_ELEMENT_THEORY":"SGP4","LAUNCH_DATE":"2021-05-04","RA_OF_ASC_NODE":"55.9853","GP_ID":"198437770","SITE":"AFETR","ECCENTRICITY":"0.00018580","ARG_OF_PERICENTER":"51.7999","OBJECT_NAME":"STARLINK-2574"},{"MEAN_MOTION_DOT":"0.00002913","OBJECT_TYPE":"PAYLOAD","CENTER_NAME":"EARTH","INCLINATION":"53.0580","ELEMENT_SET_NO":"999","TIME_SYSTEM":"UTC","BSTAR":"0.00021444000000","REV_AT_EPOCH":"4842","TLE_LINE2":"2 48396  53.0580  57.1321 0001923  51.5626 308.5536 15.06391281 48426","SEMIMAJOR_AXIS":"6925.375","DECAY_DATE":null,"MEAN_ELEMENT_THEORY":"SGP4","RA_OF_ASC_NODE":"57.1321","LAUNCH_DATE":"2021-05-04","OBJECT_ID":"2021-038AV","CLASSIFICATION_TYPE":"U","ARG_OF_PERICENTER":"51.5626","ECCENTRICITY":"0.00019230","OBJECT_NAME":"STARLINK-2575","SITE":"AFETR","GP_ID":"198398505","REF_FRAME":"TEME","EPHEMERIS_TYPE":"0","NORAD_CAT_ID":"48396","APOAPSIS":"548.572","PERIAPSIS":"545.909","MEAN_ANOMALY":"308.5536","COUNTRY_CODE":"US","FILE":"3353482","MEAN_MOTION":"15.06391281","TLE_LINE1":"1 48396U 21038AV  22069.39708109  .00002913  00000-0  21444-3 0  9993","PERIOD":"95.593","RCS_SIZE":"LARGE","EPOCH":"2022-03-10T09:31:47.806176","MEAN_MOTION_DDOT":"0.0000000000000"},{"OBJECT_NAME":"STARLINK-2590","ARG_OF_PERICENTER":"61.0382","ECCENTRICITY":"0.00015490","SITE":"AFETR","GP_ID":"198438768","RA_OF_ASC_NODE":"55.9562","LAUNCH_DATE":"2021-05-04","MEAN_ELEMENT_THEORY":"SGP4","CLASSIFICATION_TYPE":"U","OBJECT_ID":"2021-038AW","BSTAR":"0.00002297000000","REV_AT_EPOCH":"4846","ELEMENT_SET_NO":"999","TIME_SYSTEM":"UTC","SEMIMAJOR_AXIS":"6925.398","DECAY_DATE":null,"TLE_LINE2":"2 48397  53.0546  55.9562 0001549  61.0382 299.0762 15.06383709 48466","MEAN_MOTION_DOT":"0.00000061","INCLINATION":"53.0546","OBJECT_TYPE":"PAYLOAD","CENTER_NAME":"EARTH","COUNTRY_CODE":"US","MEAN_ANOMALY":"299.0762","TLE_LINE1":"1 48397U 21038AW  22069.65878648  .00000061  00000-0  22970-4 0  9997","RCS_SIZE":"LARGE","PERIOD":"95.593","EPOCH":"2022-03-10T15:48:39.151872","MEAN_MOTION_DDOT":"0.0000000000000","MEAN_MOTION":"15.06383709","FILE":"3354091","PERIAPSIS":"546.191","REF_FRAME":"TEME","NORAD_CAT_ID":"48397","APOAPSIS":"548.336","EPHEMERIS_TYPE":"0"},{"COUNTRY_CODE":"US","MEAN_ANOMALY":"308.4107","TLE_LINE1":"1 48398U 21038AX  22069.65509018  .00003613  00000-0  26132-3 0  9999","PERIOD":"95.592","RCS_SIZE":"LARGE","EPOCH":"2022-03-10T15:43:19.791552","MEAN_MOTION_DDOT":"0.0000000000000","MEAN_MOTION":"15.06396754","FILE":"3354091","PERIAPSIS":"546.048","REF_FRAME":"TEME","NORAD_CAT_ID":"48398","APOAPSIS":"548.399","EPHEMERIS_TYPE":"0","OBJECT_NAME":"STARLINK-2588","ARG_OF_PERICENTER":"51.7034","ECCENTRICITY":"0.00016970","SITE":"AFETR","GP_ID":"198438515","RA_OF_ASC_NODE":"55.9730","LAUNCH_DATE":"2021-05-04","MEAN_ELEMENT_THEORY":"SGP4","CLASSIFICATION_TYPE":"U","OBJECT_ID":"2021-038AX","BSTAR":"0.00026132000000","REV_AT_EPOCH":"4846","ELEMENT_SET_NO":"999","TIME_SYSTEM":"UTC","SEMIMAJOR_AXIS":"6925.359","DECAY_DATE":null,"TLE_LINE2":"2 48398  53.0567  55.9730 0001697  51.7034 308.4107 15.06396754 48463","MEAN_MOTION_DOT":"0.00003613","INCLINATION":"53.0567","OBJECT_TYPE":"PAYLOAD","CENTER_NAME":"EARTH"},{"NORAD_CAT_ID":"48399","APOAPSIS":"548.481","EPHEMERIS_TYPE":"0","REF_FRAME":"TEME","PERIAPSIS":"546.005","TLE_LINE1":"1 48399U 21038AY  22069.78410208  .00001129  00000-0  94699-4 0  9990","MEAN_MOTION_DDOT":"0.0000000000000","RCS_SIZE":"LARGE","PERIOD":"95.593","EPOCH":"2022-03-10T18:49:06.419712","FILE":"3354091","MEAN_MOTION":"15.06390403","COUNTRY_CODE":"US","MEAN_ANOMALY":"309.0710","INCLINATION":"53.0557","OBJECT_TYPE":"PAYLOAD","CENTER_NAME":"EARTH","MEAN_MOTION_DOT":"0.00001129","SEMIMAJOR_AXIS":"6925.378","DECAY_DATE":null,"TLE_LINE2":"2 48399  53.0557  55.3961 0001787  51.0438 309.0710 15.06390403 48477","BSTAR":"0.00009469900000","REV_AT_EPOCH":"4847","ELEMENT_SET_NO":"999","TIME_SYSTEM":"UTC","OBJECT_ID":"2021-038AY","CLASSIFICATION_TYPE":"U","RA_OF_ASC_NODE":"55.3961","LAUNCH_DATE":"2021-05-04","MEAN_ELEMENT_THEORY":"SGP4","SITE":"AFETR","GP_ID":"198437271","OBJECT_NAME":"STARLINK-2587","ARG_OF_PERICENTER":"51.0438","ECCENTRICITY":"0.00017870"},{"TLE_LINE2":"2 48400  53.0552  56.0141 0001879  53.5216 306.5946 15.06383426 47240","DECAY_DATE":null,"SEMIMAJOR_AXIS":"6925.399","TIME_SYSTEM":"UTC","ELEMENT_SET_NO":"999","REV_AT_EPOCH":"4724","BSTAR":"0.00008861900000","CENTER_NAME":"EARTH","OBJECT_TYPE":"PAYLOAD","INCLINATION":"53.0552","MEAN_MOTION_DOT":"0.00001038","GP_ID":"198437521","SITE":"AFETR","ECCENTRICITY":"0.00018790","ARG_OF_PERICENTER":"53.5216","OBJECT_NAME":"STARLINK-2576","OBJECT_ID":"2021-038AZ","CLASSIFICATION_TYPE":"U","MEAN_ELEMENT_THEORY":"SGP4","LAUNCH_DATE":"2021-05-04","RA_OF_ASC_NODE":"56.0141","PERIAPSIS":"545.963","EPHEMERIS_TYPE":"0","APOAPSIS":"548.566","NORAD_CAT_ID":"48400","REF_FRAME":"TEME","FILE":"3354091","MEAN_MOTION":"15.06383426","EPOCH":"2022-03-10T15:32:43.972224","RCS_SIZE":"LARGE","PERIOD":"95.593","MEAN_MOTION_DDOT":"0.0000000000000","TLE_LINE1":"1 48400U 21038AZ  22069.64773116  .00001038  00000-0  88619-4 0  9992","MEAN_ANOMALY":"306.5946","COUNTRY_CODE":"US"},{"MEAN_MOTION_DOT":"0.00001263","OBJECT_TYPE":"PAYLOAD","CENTER_NAME":"EARTH","INCLINATION":"53.0566","ELEMENT_SET_NO":"999","TIME_SYSTEM":"UTC","BSTAR":"0.00010369000000","REV_AT_EPOCH":"4724","TLE_LINE2":"2 48401  53.0566  55.8458 0001849  51.6783 308.4372 15.06398251 47245","SEMIMAJOR_AXIS":"6925.354","DECAY_DATE":null,"MEAN_ELEMENT_THEORY":"SGP4","RA_OF_ASC_NODE":"55.8458","LAUNCH_DATE":"2021-05-04","CLASSIFICATION_TYPE":"U","OBJECT_ID":"2021-038BA","ARG_OF_PERICENTER":"51.6783","ECCENTRICITY":"0.00018490","OBJECT_NAME":"STARLINK-2571","SITE":"AFETR","GP_ID":"198438269","REF_FRAME":"TEME","EPHEMERIS_TYPE":"0","NORAD_CAT_ID":"48401","APOAPSIS":"548.499","PERIAPSIS":"545.938","MEAN_ANOMALY":"308.4372","COUNTRY_CODE":"US","FILE":"3354091","MEAN_MOTION":"15.06398251","TLE_LINE1":"1 48401U 21038BA  22069.68362191  .00001263  00000-0  10369-3 0  9990","RCS_SIZE":"LARGE","MEAN_MOTION_DDOT":"0.0000000000000","PERIOD":"95.592","EPOCH":"2022-03-10T16:24:24.933024"},{"RCS_SIZE":"LARGE","MEAN_MOTION_DDOT":"0.0000000000000","PERIOD":"95.592","EPOCH":"2022-03-10T18:38:28.908672","TLE_LINE1":"1 48402U 21038BB  22069.77672348  .00002885  00000-0  21250-3 0  9991","FILE":"3354091","MEAN_MOTION":"15.06401383","COUNTRY_CODE":"US","MEAN_ANOMALY":"312.4052","PERIAPSIS":"546.055","APOAPSIS":"548.364","NORAD_CAT_ID":"48402","EPHEMERIS_TYPE":"0","REF_FRAME":"TEME","GP_ID":"198439015","SITE":"AFETR","OBJECT_NAME":"STARLINK-2560","ECCENTRICITY":"0.00016670","ARG_OF_PERICENTER":"47.7078","OBJECT_ID":"2021-038BB","CLASSIFICATION_TYPE":"U","LAUNCH_DATE":"2021-05-04","RA_OF_ASC_NODE":"55.4283","MEAN_ELEMENT_THEORY":"SGP4","DECAY_DATE":null,"SEMIMAJOR_AXIS":"6925.344","TLE_LINE2":"2 48402  53.0554  55.4283 0001667  47.7078 312.4052 15.06401383 47269","REV_AT_EPOCH":"4726","BSTAR":"0.00021250000000","TIME_SYSTEM":"UTC","ELEMENT_SET_NO":"999","INCLINATION":"53.0554","CENTER_NAME":"EARTH","OBJECT_TYPE":"PAYLOAD","MEAN_MOTION_DOT":"0.00002885"},{"INCLINATION":"53.0555","OBJECT_TYPE":"PAYLOAD","CENTER_NAME":"EARTH","MEAN_MOTION_DOT":"0.00003118","SEMIMAJOR_AXIS":"6925.353","DECAY_DATE":null,"TLE_LINE2":"2 48403  53.0555  57.2197 0001854  57.0001 303.1166 15.06398477 47209","BSTAR":"0.00022816000000","REV_AT_EPOCH":"4720","ELEMENT_SET_NO":"999","TIME_SYSTEM":"UTC","CLASSIFICATION_TYPE":"U","OBJECT_ID":"2021-038BC","RA_OF_ASC_NODE":"57.2197","LAUNCH_DATE":"2021-05-04","MEAN_ELEMENT_THEORY":"SGP4","SITE":"AFETR","GP_ID":"198399746","OBJECT_NAME":"STARLINK-2561","ARG_OF_PERICENTER":"57.0001","ECCENTRICITY":"0.00018540","NORAD_CAT_ID":"48403","APOAPSIS":"548.502","EPHEMERIS_TYPE":"0","REF_FRAME":"TEME","PERIAPSIS":"545.934","TLE_LINE1":"1 48403U 21038BC  22069.37496073  .00003118  00000-0  22816-3 0  9996","RCS_SIZE":"LARGE","PERIOD":"95.592","EPOCH":"2022-03-10T08:59:56.607072","MEAN_MOTION_DDOT":"0.0000000000000","FILE":"3353482","MEAN_MOTION":"15.06398477","COUNTRY_CODE":"US","MEAN_ANOMALY":"303.1166"},{"GP_ID":"198398506","SITE":"AFETR","ECCENTRICITY":"0.00016900","ARG_OF_PERICENTER":"59.4766","OBJECT_NAME":"STARLINK-2593","CLASSIFICATION_TYPE":"U","OBJECT_ID":"2021-038BD","MEAN_ELEMENT_THEORY":"SGP4","LAUNCH_DATE":"2021-05-04","RA_OF_ASC_NODE":"56.9499","TLE_LINE2":"2 48404  53.0545  56.9499 0001690  59.4766 300.6390 15.06413338 47218","DECAY_DATE":null,"SEMIMAJOR_AXIS":"6925.308","TIME_SYSTEM":"UTC","ELEMENT_SET_NO":"999","REV_AT_EPOCH":"4721","BSTAR":"0.00027259000000","CENTER_NAME":"EARTH","OBJECT_TYPE":"PAYLOAD","INCLINATION":"53.0545","MEAN_MOTION_DOT":"0.00003782","MEAN_MOTION":"15.06413338","FILE":"3353482","PERIOD":"95.591","RCS_SIZE":"LARGE","EPOCH":"2022-03-10T10:30:10.847520","MEAN_MOTION_DDOT":"0.0000000000000","TLE_LINE1":"1 48404U 21038BD  22069.43762555  .00003782  00000-0  27259-3 0  9998","MEAN_ANOMALY":"300.6390","COUNTRY_CODE":"US","PERIAPSIS":"546.002","EPHEMERIS_TYPE":"0","APOAPSIS":"548.343","NORAD_CAT_ID":"48404","REF_FRAME":"TEME"}];
